{
  "type": "FeatureCollection",
  "features": [
    {
      "type": "Feature",
      "properties": {
        "norad_id": 29894,
        "name": "FENGYUN 1C DEB",
        "group": "fengyun-1c-debris",
        "lat": -54.87318756065428,
        "lon": -154.82126814039472,
        "alt_km": 1090.605237869312,
        "timestamp": "2025-12-10T14:53:37.364659+00:00",
        "meta_object_name": "FENGYUN 1C DEB",
        "meta_object_id": "1999-025GQ",
        "meta_epoch": "2025-12-10T03:25:17.846688",
        "meta_mean_motion": 13.80967838,
        "meta_eccentricity": 0.01685948,
        "meta_inclination": 99.486,
        "meta_ra_of_asc_node": 38.447,
        "meta_arg_of_pericenter": 51.8995,
        "meta_mean_anomaly": 329.1043,
        "meta_ephemeris_type": 0,
        "meta_classification_type": "U",
        "meta_norad_cat_id": 29894,
        "meta_element_set_no": 999,
        "meta_rev_at_epoch": 95041,
        "meta_bstar": 0.00068300694,
        "meta_mean_motion_dot": 7.58e-06,
        "meta_mean_motion_ddot": 0,
        "tle_line1": "1 29894U 99025GQ  25344.14256767  .00000758  00000+0  68301-3 0  9993",
        "tle_line2": "2 29894  99.4860  38.4470 0168594  51.8995 329.1043 13.80967838950410"
      },
      "geometry": {
        "type": "Point",
        "coordinates": [
          -154.82126814039472,
          -54.87318756065428
        ]
      }
    },
    {
      "type": "Feature",
      "properties": {
        "norad_id": 29895,
        "name": "FENGYUN 1C DEB",
        "group": "fengyun-1c-debris",
        "lat": 48.14315870644219,
        "lon": -75.96909670056644,
        "alt_km": 1027.7595809443765,
        "timestamp": "2025-12-10T14:53:37.364668+00:00",
        "meta_object_name": "FENGYUN 1C DEB",
        "meta_object_id": "1999-025GR",
        "meta_epoch": "2025-12-10T05:53:30.914880",
        "meta_mean_motion": 14.08192346,
        "meta_eccentricity": 0.02993313,
        "meta_inclination": 99.8846,
        "meta_ra_of_asc_node": 92.3971,
        "meta_arg_of_pericenter": 350.5497,
        "meta_mean_anomaly": 37.6613,
        "meta_ephemeris_type": 0,
        "meta_classification_type": "U",
        "meta_norad_cat_id": 29895,
        "meta_element_set_no": 999,
        "meta_rev_at_epoch": 95489,
        "meta_bstar": 0.002565264,
        "meta_mean_motion_dot": 6.557e-05,
        "meta_mean_motion_ddot": 0,
        "tle_line1": "1 29895U 99025GR  25344.24549670  .00006557  00000+0  25653-2 0  9998",
        "tle_line2": "2 29895  99.8846  92.3971 0299331 350.5497  37.6613 14.08192346954899"
      },
      "geometry": {
        "type": "Point",
        "coordinates": [
          -75.96909670056644,
          48.14315870644219
        ]
      }
    },
    {
      "type": "Feature",
      "properties": {
        "norad_id": 29896,
        "name": "FENGYUN 1C DEB",
        "group": "fengyun-1c-debris",
        "lat": 14.646646915253736,
        "lon": 58.895439729653546,
        "alt_km": 919.2410809810335,
        "timestamp": "2025-12-10T14:53:37.364676+00:00",
        "meta_object_name": "FENGYUN 1C DEB",
        "meta_object_id": "1999-025GS",
        "meta_epoch": "2025-12-09T22:35:26.155680",
        "meta_mean_motion": 13.65362085,
        "meta_eccentricity": 0.0239594,
        "meta_inclination": 99.4224,
        "meta_ra_of_asc_node": 235.7479,
        "meta_arg_of_pericenter": 109.1179,
        "meta_mean_anomaly": 316.4234,
        "meta_ephemeris_type": 0,
        "meta_classification_type": "U",
        "meta_norad_cat_id": 29896,
        "meta_element_set_no": 999,
        "meta_rev_at_epoch": 94004,
        "meta_bstar": 0.00075373809,
        "meta_mean_motion_dot": 7.05e-06,
        "meta_mean_motion_ddot": 0,
        "tle_line1": "1 29896U 99025GS  25343.94127495  .00000705  00000+0  75374-3 0  9997",
        "tle_line2": "2 29896  99.4224 235.7479 0239594 109.1179 316.4234 13.65362085940042"
      },
      "geometry": {
        "type": "Point",
        "coordinates": [
          58.895439729653546,
          14.646646915253736
        ]
      }
    },
    {
      "type": "Feature",
      "properties": {
        "norad_id": 29897,
        "name": "FENGYUN 1C DEB",
        "group": "fengyun-1c-debris",
        "lat": 34.45386168868,
        "lon": 35.126823478291534,
        "alt_km": 823.5584578837215,
        "timestamp": "2025-12-10T14:53:37.364685+00:00",
        "meta_object_name": "FENGYUN 1C DEB",
        "meta_object_id": "1999-025GT",
        "meta_epoch": "2025-12-10T02:32:36.676320",
        "meta_mean_motion": 13.57168139,
        "meta_eccentricity": 0.02964145,
        "meta_inclination": 98.6289,
        "meta_ra_of_asc_node": 208.6947,
        "meta_arg_of_pericenter": 145.6442,
        "meta_mean_anomaly": 6.4638,
        "meta_ephemeris_type": 0,
        "meta_classification_type": "U",
        "meta_norad_cat_id": 29897,
        "meta_element_set_no": 999,
        "meta_rev_at_epoch": 92904,
        "meta_bstar": 0.0023008942,
        "meta_mean_motion_dot": 2.147e-05,
        "meta_mean_motion_ddot": 0,
        "tle_line1": "1 29897U 99025GT  25344.10598005  .00002147  00000+0  23009-2 0  9995",
        "tle_line2": "2 29897  98.6289 208.6947 0296414 145.6442   6.4638 13.57168139929042"
      },
      "geometry": {
        "type": "Point",
        "coordinates": [
          35.126823478291534,
          34.45386168868
        ]
      }
    },
    {
      "type": "Feature",
      "properties": {
        "norad_id": 29898,
        "name": "FENGYUN 1C DEB",
        "group": "fengyun-1c-debris",
        "lat": 80.66192726000756,
        "lon": -84.29753550178916,
        "alt_km": 1083.924816422219,
        "timestamp": "2025-12-10T14:53:37.364694+00:00",
        "meta_object_name": "FENGYUN 1C DEB",
        "meta_object_id": "1999-025GU",
        "meta_epoch": "2025-12-09T22:49:24.882816",
        "meta_mean_motion": 13.70283961,
        "meta_eccentricity": 0.04272077,
        "meta_inclination": 98.2232,
        "meta_ra_of_asc_node": 336.695,
        "meta_arg_of_pericenter": 196.8336,
        "meta_mean_anomaly": 192.1102,
        "meta_ephemeris_type": 0,
        "meta_classification_type": "U",
        "meta_norad_cat_id": 29898,
        "meta_element_set_no": 999,
        "meta_rev_at_epoch": 93123,
        "meta_bstar": 0.0023175021,
        "meta_mean_motion_dot": 3.871e-05,
        "meta_mean_motion_ddot": 0,
        "tle_line1": "1 29898U 99025GU  25343.95098244  .00003871  00000+0  23175-2 0  9997",
        "tle_line2": "2 29898  98.2232 336.6950 0427207 196.8336 192.1102 13.70283961931238"
      },
      "geometry": {
        "type": "Point",
        "coordinates": [
          -84.29753550178916,
          80.66192726000756
        ]
      }
    },
    {
      "type": "Feature",
      "properties": {
        "norad_id": 29899,
        "name": "FENGYUN 1C DEB",
        "group": "fengyun-1c-debris",
        "lat": 21.202088822359144,
        "lon": 137.05362532744988,
        "alt_km": 989.6067369138545,
        "timestamp": "2025-12-10T14:53:37.364704+00:00",
        "meta_object_name": "FENGYUN 1C DEB",
        "meta_object_id": "1999-025GV",
        "meta_epoch": "2025-12-10T04:01:01.369344",
        "meta_mean_motion": 13.37491252,
        "meta_eccentricity": 0.03536174,
        "meta_inclination": 98.6616,
        "meta_ra_of_asc_node": 140.0567,
        "meta_arg_of_pericenter": 85.4385,
        "meta_mean_anomaly": 278.7041,
        "meta_ephemeris_type": 0,
        "meta_classification_type": "U",
        "meta_norad_cat_id": 29899,
        "meta_element_set_no": 999,
        "meta_rev_at_epoch": 92050,
        "meta_bstar": 0.00026567645,
        "meta_mean_motion_dot": 1.67e-06,
        "meta_mean_motion_ddot": 0,
        "tle_line1": "1 29899U 99025GV  25344.16737696  .00000167  00000+0  26568-3 0  9998",
        "tle_line2": "2 29899  98.6616 140.0567 0353617  85.4385 278.7041 13.37491252920508"
      },
      "geometry": {
        "type": "Point",
        "coordinates": [
          137.05362532744988,
          21.202088822359144
        ]
      }
    },
    {
      "type": "Feature",
      "properties": {
        "norad_id": 29901,
        "name": "FENGYUN 1C DEB",
        "group": "fengyun-1c-debris",
        "lat": -62.680991395099554,
        "lon": -41.58267658364218,
        "alt_km": 940.5098542586738,
        "timestamp": "2025-12-10T14:53:37.364713+00:00",
        "meta_object_name": "FENGYUN 1C DEB",
        "meta_object_id": "1999-025GX",
        "meta_epoch": "2025-12-09T10:45:32.870304",
        "meta_mean_motion": 13.33251065,
        "meta_eccentricity": 0.03791844,
        "meta_inclination": 98.7445,
        "meta_ra_of_asc_node": 154.7489,
        "meta_arg_of_pericenter": 293.5309,
        "meta_mean_anomaly": 89.8792,
        "meta_ephemeris_type": 0,
        "meta_classification_type": "U",
        "meta_norad_cat_id": 29901,
        "meta_element_set_no": 999,
        "meta_rev_at_epoch": 91875,
        "meta_bstar": 0.0006546712,
        "meta_mean_motion_dot": 4.43e-06,
        "meta_mean_motion_ddot": 0,
        "tle_line1": "1 29901U 99025GX  25343.44829711  .00000443  00000+0  65467-3 0  9990",
        "tle_line2": "2 29901  98.7445 154.7489 0379184 293.5309  89.8792 13.33251065918753"
      },
      "geometry": {
        "type": "Point",
        "coordinates": [
          -41.58267658364218,
          -62.680991395099554
        ]
      }
    }
  ]
}